{
  "type": "FeatureCollection",
  "features": [
    {
      "type": "Feature",
      "properties": {
        "norad_id": 41581,
        "name": "INTELSAT 31 (IS-31)",
        "group": "intelsat",
        "lat": 0.013258609571261338,
        "lon": 96.28641934520701,
        "alt_km": 35788.94057306334,
        "timestamp": "2025-12-17T07:00:46.559754+00:00",
        "meta_object_name": "INTELSAT 31 (IS-31)",
        "meta_object_id": "2016-035A",
        "meta_epoch": "2025-12-16T09:29:38.777280",
        "meta_mean_motion": 1.00273672,
        "meta_eccentricity": 0.00019671,
        "meta_inclination": 0.0195,
        "meta_ra_of_asc_node": 272.5093,
        "meta_arg_of_pericenter": 297.3574,
        "meta_mean_anomaly": 282.7801,
        "meta_ephemeris_type": 0,
        "meta_classification_type": "U",
        "meta_norad_cat_id": 41581,
        "meta_element_set_no": 999,
        "meta_rev_at_epoch": 3485,
        "meta_bstar": 0,
        "meta_mean_motion_dot": -1.28e-06,
        "meta_mean_motion_ddot": 0,
        "tle_line1": "1 41581U 16035A   25350.39558770 -.00000128  00000+0  00000+0 0  9993",
        "tle_line2": "2 41581   0.0195 272.5093 0001967 297.3574 282.7801  1.00273672 34850"
      },
      "geometry": {
        "type": "Point",
        "coordinates": [
          96.28641934520701,
          0.013258609571261338
        ]
      }
    },
    {
      "type": "Feature",
      "properties": {
        "norad_id": 41747,
        "name": "INTELSAT 36 (IS-36)",
        "group": "intelsat",
        "lat": -0.03561095895080316,
        "lon": -100.17567354332272,
        "alt_km": 35784.51684466744,
        "timestamp": "2025-12-17T07:00:46.559766+00:00",
        "meta_object_name": "INTELSAT 36 (IS-36)",
        "meta_object_id": "2016-053A",
        "meta_epoch": "2025-12-16T18:49:07.186944",
        "meta_mean_motion": 1.00271137,
        "meta_eccentricity": 0.00011651,
        "meta_inclination": 0.0113,
        "meta_ra_of_asc_node": 0.976,
        "meta_arg_of_pericenter": 328.2482,
        "meta_mean_anomaly": 107.2108,
        "meta_ephemeris_type": 0,
        "meta_classification_type": "U",
        "meta_norad_cat_id": 41747,
        "meta_element_set_no": 999,
        "meta_rev_at_epoch": 3411,
        "meta_bstar": 0,
        "meta_mean_motion_dot": 0,
        "meta_mean_motion_ddot": 0,
        "tle_line1": "1 41747U 16053A   25350.78411096  .00000000  00000+0  00000+0 0  9997",
        "tle_line2": "2 41747   0.0113   0.9760 0001165 328.2482 107.2108  1.00271137 34114"
      },
      "geometry": {
        "type": "Point",
        "coordinates": [
          -100.17567354332272,
          -0.03561095895080316
        ]
      }
    },
    {
      "type": "Feature",
      "properties": {
        "norad_id": 41945,
        "name": "INTELSAT 32E (IS-32E)",
        "group": "intelsat",
        "lat": 0.02829962414983452,
        "lon": 148.18276682964103,
        "alt_km": 35787.2365000101,
        "timestamp": "2025-12-17T07:00:46.559778+00:00",
        "meta_object_name": "INTELSAT 32E (IS-32E)",
        "meta_object_id": "2017-007B",
        "meta_epoch": "2025-12-16T04:35:28.228416",
        "meta_mean_motion": 1.00271613,
        "meta_eccentricity": 5.242e-05,
        "meta_inclination": 0.0304,
        "meta_ra_of_asc_node": 75.3547,
        "meta_arg_of_pericenter": 315.6867,
        "meta_mean_anomaly": 79.7377,
        "meta_ephemeris_type": 0,
        "meta_classification_type": "U",
        "meta_norad_cat_id": 41945,
        "meta_element_set_no": 999,
        "meta_rev_at_epoch": 3239,
        "meta_bstar": 0,
        "meta_mean_motion_dot": -2.46e-06,
        "meta_mean_motion_ddot": 0,
        "tle_line1": "1 41945U 17007B   25350.19129894 -.00000246  00000+0  00000+0 0  9997",
        "tle_line2": "2 41945   0.0304  75.3547 0000524 315.6867  79.7377  1.00271613 32398"
      },
      "geometry": {
        "type": "Point",
        "coordinates": [
          148.18276682964103,
          0.02829962414983452
        ]
      }
    },
    {
      "type": "Feature",
      "properties": {
        "norad_id": 42818,
        "name": "INTELSAT 35E (IS-35E)",
        "group": "intelsat",
        "lat": 0.013274278083592305,
        "lon": 156.83145815228409,
        "alt_km": 35789.51811887439,
        "timestamp": "2025-12-17T07:00:46.559790+00:00",
        "meta_object_name": "INTELSAT 35E (IS-35E)",
        "meta_object_id": "2017-041A",
        "meta_epoch": "2025-12-16T16:37:04.829664",
        "meta_mean_motion": 1.00270275,
        "meta_eccentricity": 0.00018409,
        "meta_inclination": 0.0251,
        "meta_ra_of_asc_node": 358.2712,
        "meta_arg_of_pericenter": 270.9711,
        "meta_mean_anomaly": 31.1092,
        "meta_ephemeris_type": 0,
        "meta_classification_type": "U",
        "meta_norad_cat_id": 42818,
        "meta_element_set_no": 999,
        "meta_rev_at_epoch": 3098,
        "meta_bstar": 0,
        "meta_mean_motion_dot": 0,
        "meta_mean_motion_ddot": 0,
        "tle_line1": "1 42818U 17041A   25350.69241701  .00000000  00000+0  00000+0 0  9999",
        "tle_line2": "2 42818   0.0251 358.2712 0001840 270.9711  31.1092  1.00270275 30981"
      },
      "geometry": {
        "type": "Point",
        "coordinates": [
          156.83145815228409,
          0.013274278083592305
        ]
      }
    },
    {
      "type": "Feature",
      "properties": {
        "norad_id": 42950,
        "name": "INTELSAT 37E (IS-37E)",
        "group": "intelsat",
        "lat": 0.0015083953833754235,
        "lon": 173.3197109459221,
        "alt_km": 35785.02400595553,
        "timestamp": "2025-12-17T07:00:46.559803+00:00",
        "meta_object_name": "INTELSAT 37E (IS-37E)",
        "meta_object_id": "2017-059A",
        "meta_epoch": "2025-12-16T16:41:41.887680",
        "meta_mean_motion": 1.00271305,
        "meta_eccentricity": 0.00029525,
        "meta_inclination": 0.0011,
        "meta_ra_of_asc_node": 15.7899,
        "meta_arg_of_pericenter": 241.9436,
        "meta_mean_anomaly": 60.2756,
        "meta_ephemeris_type": 0,
        "meta_classification_type": "U",
        "meta_norad_cat_id": 42950,
        "meta_element_set_no": 999,
        "meta_rev_at_epoch": 3023,
        "meta_bstar": 0,
        "meta_mean_motion_dot": -1.17e-06,
        "meta_mean_motion_ddot": 0,
        "tle_line1": "1 42950U 17059A   25350.69562370 -.00000117  00000+0  00000+0 0  9993",
        "tle_line2": "2 42950   0.0011  15.7899 0002952 241.9436  60.2756  1.00271305 30233"
      },
      "geometry": {
        "type": "Point",
        "coordinates": [
          173.3197109459221,
          0.0015083953833754235
        ]
      }
    },
    {
      "type": "Feature",
      "properties": {
        "norad_id": 43632,
        "name": "AZERSPACE 2 (IS-38)",
        "group": "intelsat",
        "lat": -0.04160656436412844,
        "lon": -123.54178163460539,
        "alt_km": 35781.72332979902,
        "timestamp": "2025-12-17T07:00:46.559815+00:00",
        "meta_object_name": "AZERSPACE 2 (IS-38)",
        "meta_object_id": "2018-074A",
        "meta_epoch": "2025-12-16T18:42:30.320640",
        "meta_mean_motion": 1.00271781,
        "meta_eccentricity": 0.00012112,
        "meta_inclination": 0.0171,
        "meta_ra_of_asc_node": 333.513,
        "meta_arg_of_pericenter": 296.0191,
        "meta_mean_anomaly": 141.8726,
        "meta_ephemeris_type": 0,
        "meta_classification_type": "U",
        "meta_norad_cat_id": 43632,
        "meta_element_set_no": 999,
        "meta_rev_at_epoch": 2661,
        "meta_bstar": 0,
        "meta_mean_motion_dot": 1.61e-06,
        "meta_mean_motion_ddot": 0,
        "tle_line1": "1 43632U 18074A   25350.77951760  .00000161  00000+0  00000+0 0  9991",
        "tle_line2": "2 43632   0.0171 333.5130 0001211 296.0191 141.8726  1.00271781 26611"
      },
      "geometry": {
        "type": "Point",
        "coordinates": [
          -123.54178163460539,
          -0.04160656436412844
        ]
      }
    },
    {
      "type": "Feature",
      "properties": {
        "norad_id": 43633,
        "name": "HORIZONS-3E",
        "group": "intelsat",
        "lat": 0.025730340302745475,
        "lon": 0.33879968340560074,
        "alt_km": 35784.80330447624,
        "timestamp": "2025-12-17T07:00:46.559827+00:00",
        "meta_object_name": "HORIZONS-3E",
        "meta_object_id": "2018-074B",
        "meta_epoch": "2025-12-16T14:09:40.218048",
        "meta_mean_motion": 1.00269891,
        "meta_eccentricity": 8.37e-05,
        "meta_inclination": 0.0492,
        "meta_ra_of_asc_node": 188.1186,
        "meta_arg_of_pericenter": 112.8726,
        "meta_mean_anomaly": 165.8874,
        "meta_ephemeris_type": 0,
        "meta_classification_type": "U",
        "meta_norad_cat_id": 43633,
        "meta_element_set_no": 999,
        "meta_rev_at_epoch": 2651,
        "meta_bstar": 0,
        "meta_mean_motion_dot": -7e-08,
        "meta_mean_motion_ddot": 0,
        "tle_line1": "1 43633U 18074B   25350.59004882 -.00000007  00000+0  00000+0 0  9996",
        "tle_line2": "2 43633   0.0492 188.1186 0000837 112.8726 165.8874  1.00269891 26513"
      },
      "geometry": {
        "type": "Point",
        "coordinates": [
          0.33879968340560074,
          0.025730340302745475
        ]
      }
    }
  ]
}